JILIN-1 KUANFU 01       
1 45016U 20003A   26189.48003911  .00002594  00000+0  15974-3 0  9991
2 45016  97.5022 263.0204 0008659 221.7667 138.2902 15.10843236358542
JILIN-1 KUANFU-01B      
1 49003U 21061A   26189.51407301  .00001525  00000+0  98319-4 0  9999
2 49003  97.5198 265.3126 0006705   2.5505 357.5757 15.09786541276568
JILIN-1 KUANFU 01C      
1 52443U 22048A   26189.50502330  .00002304  00000+0  14699-3 0  9998
2 52443  97.5253 266.2910 0016855 244.7253 115.2230 15.09576358230412
JILIN-1 KUANFU 02A      
1 57696U 23127A   26189.52967193  .00003023  00000+0  18584-3 0  9992
2 57696  97.5566 283.0782 0009945 262.7562  97.2538 15.10779918158859
JILIN-01 KUANFU 02B 1   
1 61189U 24169A   26189.53568396  .00002922  00000+0  18867-3 0  9995
2 61189  97.5571 278.7288 0002112   7.1484 352.9774 15.09028269 99044
JILIN-01 KUANFU 02B 2   
1 61190U 24169B   26189.51513464  .00002613  00000+0  16931-3 0  9998
2 61190  97.5568 278.0943 0004981 309.2665  50.8122 15.08992751 99042
JILIN-01 KUANFU 02B 3   
1 61191U 24169C   26189.52424147  .00002940  00000+0  18951-3 0  9996
2 61191  97.5563 278.5361 0012552 230.1604 129.8521 15.09030330 99042
JILIN-01 KUANFU 02B 4   
1 61192U 24169D   26189.49293554  .00002192  00000+0  14236-3 0  9990
2 61192  97.5526 278.0350 0013402 185.6649 174.4430 15.09012228 99044
JILIN-01 KUANFU 02B 5   
1 61193U 24169E   26189.54642900  .00002465  00000+0  15952-3 0  9999
2 61193  97.5572 278.8800 0012602 210.8066 149.2424 15.09045048 99059
JILIN-01 KUANFU 02B 6   
1 61194U 24169F   26189.50357354  .00002111  00000+0  13726-3 0  9997
2 61194  97.5556 278.7324 0015089 245.6837 114.2816 15.09007789 99053
