{"fetched_at":"2026-07-08T17:59:51.887Z","source":"https://celestrak.org/NORAD/elements/gp.php?NAME=JILIN&FORMAT=JSON","constellation":"jilin-1-kuanfu","records":[{"OBJECT_NAME":"JILIN-1 KUANFU 01","OBJECT_ID":"2020-003A","EPOCH":"2026-07-08T11:31:15.379104","CLASSIFICATION_TYPE":"U","MEAN_MOTION":15.10843236,"ECCENTRICITY":0.0008659,"INCLINATION":97.5022,"RA_OF_ASC_NODE":263.0204,"ARG_OF_PERICENTER":221.7667,"MEAN_ANOMALY":138.2902,"EPHEMERIS_TYPE":0,"NORAD_CAT_ID":45016,"ELEMENT_SET_NO":999,"REV_AT_EPOCH":35854,"BSTAR":0.00015974,"MEAN_MOTION_DOT":0.00002594,"MEAN_MOTION_DDOT":0},{"OBJECT_NAME":"JILIN-1 KUANFU-01B","OBJECT_ID":"2021-061A","EPOCH":"2026-07-08T12:20:15.908064","CLASSIFICATION_TYPE":"U","MEAN_MOTION":15.09786541,"ECCENTRICITY":0.0006705,"INCLINATION":97.5198,"RA_OF_ASC_NODE":265.3126,"ARG_OF_PERICENTER":2.5505,"MEAN_ANOMALY":357.5757,"EPHEMERIS_TYPE":0,"NORAD_CAT_ID":49003,"ELEMENT_SET_NO":999,"REV_AT_EPOCH":27656,"BSTAR":0.000098319,"MEAN_MOTION_DOT":0.00001525,"MEAN_MOTION_DDOT":0},{"OBJECT_NAME":"JILIN-1 KUANFU 01C","OBJECT_ID":"2022-048A","EPOCH":"2026-07-08T12:07:14.013120","CLASSIFICATION_TYPE":"U","MEAN_MOTION":15.09576358,"ECCENTRICITY":0.0016855,"INCLINATION":97.5253,"RA_OF_ASC_NODE":266.291,"ARG_OF_PERICENTER":244.7253,"MEAN_ANOMALY":115.223,"EPHEMERIS_TYPE":0,"NORAD_CAT_ID":52443,"ELEMENT_SET_NO":999,"REV_AT_EPOCH":23041,"BSTAR":0.00014699,"MEAN_MOTION_DOT":0.00002304,"MEAN_MOTION_DDOT":0},{"OBJECT_NAME":"JILIN-1 KUANFU 02A","OBJECT_ID":"2023-127A","EPOCH":"2026-07-08T12:42:43.654752","CLASSIFICATION_TYPE":"U","MEAN_MOTION":15.10779918,"ECCENTRICITY":0.0009945,"INCLINATION":97.5566,"RA_OF_ASC_NODE":283.0782,"ARG_OF_PERICENTER":262.7562,"MEAN_ANOMALY":97.2538,"EPHEMERIS_TYPE":0,"NORAD_CAT_ID":57696,"ELEMENT_SET_NO":999,"REV_AT_EPOCH":15885,"BSTAR":0.00018584,"MEAN_MOTION_DOT":0.00003023,"MEAN_MOTION_DDOT":0},{"OBJECT_NAME":"JILIN-01 KUANFU 02B 1","OBJECT_ID":"2024-169A","EPOCH":"2026-07-08T12:51:23.094144","CLASSIFICATION_TYPE":"U","MEAN_MOTION":15.09028269,"ECCENTRICITY":0.0002112,"INCLINATION":97.5571,"RA_OF_ASC_NODE":278.7288,"ARG_OF_PERICENTER":7.1484,"MEAN_ANOMALY":352.9774,"EPHEMERIS_TYPE":0,"NORAD_CAT_ID":61189,"ELEMENT_SET_NO":999,"REV_AT_EPOCH":9904,"BSTAR":0.00018867,"MEAN_MOTION_DOT":0.00002922,"MEAN_MOTION_DDOT":0},{"OBJECT_NAME":"JILIN-01 KUANFU 02B 2","OBJECT_ID":"2024-169B","EPOCH":"2026-07-08T12:21:47.632896","CLASSIFICATION_TYPE":"U","MEAN_MOTION":15.08992751,"ECCENTRICITY":0.0004981,"INCLINATION":97.5568,"RA_OF_ASC_NODE":278.0943,"ARG_OF_PERICENTER":309.2665,"MEAN_ANOMALY":50.8122,"EPHEMERIS_TYPE":0,"NORAD_CAT_ID":61190,"ELEMENT_SET_NO":999,"REV_AT_EPOCH":9904,"BSTAR":0.00016931,"MEAN_MOTION_DOT":0.00002613,"MEAN_MOTION_DDOT":0},{"OBJECT_NAME":"JILIN-01 KUANFU 02B 3","OBJECT_ID":"2024-169C","EPOCH":"2026-07-08T12:34:54.463008","CLASSIFICATION_TYPE":"U","MEAN_MOTION":15.0903033,"ECCENTRICITY":0.0012552,"INCLINATION":97.5563,"RA_OF_ASC_NODE":278.5361,"ARG_OF_PERICENTER":230.1604,"MEAN_ANOMALY":129.8521,"EPHEMERIS_TYPE":0,"NORAD_CAT_ID":61191,"ELEMENT_SET_NO":999,"REV_AT_EPOCH":9904,"BSTAR":0.00018951,"MEAN_MOTION_DOT":0.0000294,"MEAN_MOTION_DDOT":0},{"OBJECT_NAME":"JILIN-01 KUANFU 02B 4","OBJECT_ID":"2024-169D","EPOCH":"2026-07-08T11:49:49.630656","CLASSIFICATION_TYPE":"U","MEAN_MOTION":15.09012228,"ECCENTRICITY":0.0013402,"INCLINATION":97.5526,"RA_OF_ASC_NODE":278.035,"ARG_OF_PERICENTER":185.6649,"MEAN_ANOMALY":174.443,"EPHEMERIS_TYPE":0,"NORAD_CAT_ID":61192,"ELEMENT_SET_NO":999,"REV_AT_EPOCH":9904,"BSTAR":0.00014236,"MEAN_MOTION_DOT":0.00002192,"MEAN_MOTION_DDOT":0},{"OBJECT_NAME":"JILIN-01 KUANFU 02B 5","OBJECT_ID":"2024-169E","EPOCH":"2026-07-08T13:06:51.465600","CLASSIFICATION_TYPE":"U","MEAN_MOTION":15.09045048,"ECCENTRICITY":0.0012602,"INCLINATION":97.5572,"RA_OF_ASC_NODE":278.88,"ARG_OF_PERICENTER":210.8066,"MEAN_ANOMALY":149.2424,"EPHEMERIS_TYPE":0,"NORAD_CAT_ID":61193,"ELEMENT_SET_NO":999,"REV_AT_EPOCH":9905,"BSTAR":0.00015952,"MEAN_MOTION_DOT":0.00002465,"MEAN_MOTION_DDOT":0},{"OBJECT_NAME":"JILIN-01 KUANFU 02B 6","OBJECT_ID":"2024-169F","EPOCH":"2026-07-08T12:05:08.753856","CLASSIFICATION_TYPE":"U","MEAN_MOTION":15.09007789,"ECCENTRICITY":0.0015089,"INCLINATION":97.5556,"RA_OF_ASC_NODE":278.7324,"ARG_OF_PERICENTER":245.6837,"MEAN_ANOMALY":114.2816,"EPHEMERIS_TYPE":0,"NORAD_CAT_ID":61194,"ELEMENT_SET_NO":999,"REV_AT_EPOCH":9905,"BSTAR":0.00013726,"MEAN_MOTION_DOT":0.00002111,"MEAN_MOTION_DDOT":0}]}
